CCSDS_OMM_VERS = 2.0
CREATION_DATE  = 
ORIGINATOR     = 

OBJECT_NAME    = STARLINK-35607
OBJECT_ID      = 2025-240T
CENTER_NAME    = EARTH
REF_FRAME      = TEME
TIME_SYSTEM    = UTC
MEAN_ELEMENT_THEORY = SGP/SGP4

EPOCH          = 2025-11-18T20:00:01.999008
MEAN_MOTION    = 15.49276937
ECCENTRICITY   = .0000946
INCLINATION    = 53.1605
RA_OF_ASC_NODE = 218.7401
ARG_OF_PERICENTER = 88.7767
MEAN_ANOMALY   = 190.5052

EPHEMERIS_TYPE = 0
CLASSIFICATION_TYPE = U
NORAD_CAT_ID   = 66163
ELEMENT_SET_NO = 999
REV_AT_EPOCH   = 506
BSTAR          = .53136E-3
MEAN_MOTION_DOT = .29181E-3
MEAN_MOTION_DDOT = 0

CCSDS_OMM_VERS = 2.0
CREATION_DATE  = 
ORIGINATOR     = 

OBJECT_NAME    = STARLINK-35614
OBJECT_ID      = 2025-240U
CENTER_NAME    = EARTH
REF_FRAME      = TEME
TIME_SYSTEM    = UTC
MEAN_ELEMENT_THEORY = SGP/SGP4

EPOCH          = 2025-11-18T20:00:01.999008
MEAN_MOTION    = 15.49273728
ECCENTRICITY   = .0001363
INCLINATION    = 53.1604
RA_OF_ASC_NODE = 218.7306
ARG_OF_PERICENTER = 88.1357
MEAN_ANOMALY   = 194.9824

EPHEMERIS_TYPE = 0
CLASSIFICATION_TYPE = U
NORAD_CAT_ID   = 66164
ELEMENT_SET_NO = 999
REV_AT_EPOCH   = 506
BSTAR          = .60939E-3
MEAN_MOTION_DOT = .33547E-3
MEAN_MOTION_DDOT = 0

CCSDS_OMM_VERS = 2.0
CREATION_DATE  = 
ORIGINATOR     = 

OBJECT_NAME    = STARLINK-35575
OBJECT_ID      = 2025-240V
CENTER_NAME    = EARTH
REF_FRAME      = TEME
TIME_SYSTEM    = UTC
MEAN_ELEMENT_THEORY = SGP/SGP4

EPOCH          = 2025-11-18T20:00:01.999008
MEAN_MOTION    = 15.49340282
ECCENTRICITY   = .000135
INCLINATION    = 53.1605
RA_OF_ASC_NODE = 218.7355
ARG_OF_PERICENTER = 90.7459
MEAN_ANOMALY   = 190.4323

EPHEMERIS_TYPE = 0
CLASSIFICATION_TYPE = U
NORAD_CAT_ID   = 66165
ELEMENT_SET_NO = 999
REV_AT_EPOCH   = 506
BSTAR          = -.14763E-2
MEAN_MOTION_DOT = -.81794E-3
MEAN_MOTION_DDOT = 0

CCSDS_OMM_VERS = 2.0
CREATION_DATE  = 
ORIGINATOR     = 

OBJECT_NAME    = STARLINK-35624
OBJECT_ID      = 2025-240W
CENTER_NAME    = EARTH
REF_FRAME      = TEME
TIME_SYSTEM    = UTC
MEAN_ELEMENT_THEORY = SGP/SGP4

EPOCH          = 2025-11-18T20:00:01.999008
MEAN_MOTION    = 15.49275761
ECCENTRICITY   = .0000767
INCLINATION    = 53.1605
RA_OF_ASC_NODE = 218.7239
ARG_OF_PERICENTER = 95.8838
MEAN_ANOMALY   = 191.0664

EPHEMERIS_TYPE = 0
CLASSIFICATION_TYPE = U
NORAD_CAT_ID   = 66166
ELEMENT_SET_NO = 999
REV_AT_EPOCH   = 506
BSTAR          = .54072E-3
MEAN_MOTION_DOT = .29704E-3
MEAN_MOTION_DDOT = 0

CCSDS_OMM_VERS = 2.0
CREATION_DATE  = 
ORIGINATOR     = 

OBJECT_NAME    = STARLINK-35641
OBJECT_ID      = 2025-240X
CENTER_NAME    = EARTH
REF_FRAME      = TEME
TIME_SYSTEM    = UTC
MEAN_ELEMENT_THEORY = SGP/SGP4

EPOCH          = 2025-11-18T20:00:01.999008
MEAN_MOTION    = 15.49260052
ECCENTRICITY   = .0000735
INCLINATION    = 53.1602
RA_OF_ASC_NODE = 218.7275
ARG_OF_PERICENTER = 101.9417
MEAN_ANOMALY   = 183.1003

EPHEMERIS_TYPE = 0
CLASSIFICATION_TYPE = U
NORAD_CAT_ID   = 66167
ELEMENT_SET_NO = 999
REV_AT_EPOCH   = 506
BSTAR          = .11745E-2
MEAN_MOTION_DOT = .65304E-3
MEAN_MOTION_DDOT = 0

CCSDS_OMM_VERS = 2.0
CREATION_DATE  = 
ORIGINATOR     = 

OBJECT_NAME    = STARLINK-35578
OBJECT_ID      = 2025-240Y
CENTER_NAME    = EARTH
REF_FRAME      = TEME
TIME_SYSTEM    = UTC
MEAN_ELEMENT_THEORY = SGP/SGP4

EPOCH          = 2025-11-18T20:00:01.999008
MEAN_MOTION    = 15.49271860
ECCENTRICITY   = .0000798
INCLINATION    = 53.1604
RA_OF_ASC_NODE = 218.7116
ARG_OF_PERICENTER = 87.7972
MEAN_ANOMALY   = 204.9087

EPHEMERIS_TYPE = 0
CLASSIFICATION_TYPE = U
NORAD_CAT_ID   = 66168
ELEMENT_SET_NO = 999
REV_AT_EPOCH   = 506
BSTAR          = .61316E-3
MEAN_MOTION_DOT = .33756E-3
MEAN_MOTION_DDOT = 0

CCSDS_OMM_VERS = 2.0
CREATION_DATE  = 
ORIGINATOR     = 

OBJECT_NAME    = STARLINK-35638
OBJECT_ID      = 2025-240Z
CENTER_NAME    = EARTH
REF_FRAME      = TEME
TIME_SYSTEM    = UTC
MEAN_ELEMENT_THEORY = SGP/SGP4

EPOCH          = 2025-11-18T20:00:01.999008
MEAN_MOTION    = 15.49276384
ECCENTRICITY   = .0001273
INCLINATION    = 53.1604
RA_OF_ASC_NODE = 218.7190
ARG_OF_PERICENTER = 88.3780
MEAN_ANOMALY   = 200.4874

EPHEMERIS_TYPE = 0
CLASSIFICATION_TYPE = U
NORAD_CAT_ID   = 66169
ELEMENT_SET_NO = 999
REV_AT_EPOCH   = 506
BSTAR          = .56504E-3
MEAN_MOTION_DOT = .31066E-3
MEAN_MOTION_DDOT = 0

CCSDS_OMM_VERS = 2.0
CREATION_DATE  = 
ORIGINATOR     = 

OBJECT_NAME    = STARLINK-35585
OBJECT_ID      = 2025-240AA
CENTER_NAME    = EARTH
REF_FRAME      = TEME
TIME_SYSTEM    = UTC
MEAN_ELEMENT_THEORY = SGP/SGP4

EPOCH          = 2025-11-18T20:00:01.999008
MEAN_MOTION    = 15.49278154
ECCENTRICITY   = .0001328
INCLINATION    = 53.1604
RA_OF_ASC_NODE = 218.7077
ARG_OF_PERICENTER = 86.7899
MEAN_ANOMALY   = 207.8250

EPHEMERIS_TYPE = 0
CLASSIFICATION_TYPE = U
NORAD_CAT_ID   = 66170
ELEMENT_SET_NO = 999
REV_AT_EPOCH   = 506
BSTAR          = .51251E-3
MEAN_MOTION_DOT = .28127E-3
MEAN_MOTION_DDOT = 0

CCSDS_OMM_VERS = 2.0
CREATION_DATE  = 
ORIGINATOR     = 

OBJECT_NAME    = STARLINK-35606
OBJECT_ID      = 2025-240AB
CENTER_NAME    = EARTH
REF_FRAME      = TEME
TIME_SYSTEM    = UTC
MEAN_ELEMENT_THEORY = SGP/SGP4

EPOCH          = 2025-11-18T20:00:01.999008
MEAN_MOTION    = 15.49277021
ECCENTRICITY   = .0000895
INCLINATION    = 53.1604
RA_OF_ASC_NODE = 218.7034
ARG_OF_PERICENTER = 96.0221
MEAN_ANOMALY   = 200.5113

EPHEMERIS_TYPE = 0
CLASSIFICATION_TYPE = U
NORAD_CAT_ID   = 66171
ELEMENT_SET_NO = 999
REV_AT_EPOCH   = 506
BSTAR          = .51297E-3
MEAN_MOTION_DOT = .28152E-3
MEAN_MOTION_DDOT = 0

CCSDS_OMM_VERS = 2.0
CREATION_DATE  = 
ORIGINATOR     = 

OBJECT_NAME    = STARLINK-35627
OBJECT_ID      = 2025-240AC
CENTER_NAME    = EARTH
REF_FRAME      = TEME
TIME_SYSTEM    = UTC
MEAN_ELEMENT_THEORY = SGP/SGP4

EPOCH          = 2025-11-18T20:00:01.999008
MEAN_MOTION    = 15.49276027
ECCENTRICITY   = .0000724
INCLINATION    = 53.1604
RA_OF_ASC_NODE = 218.7154
ARG_OF_PERICENTER = 98.2947
MEAN_ANOMALY   = 192.4908

EPHEMERIS_TYPE = 0
CLASSIFICATION_TYPE = U
NORAD_CAT_ID   = 66172
ELEMENT_SET_NO = 999
REV_AT_EPOCH   = 506
BSTAR          = .52294E-3
MEAN_MOTION_DOT = .28708E-3
MEAN_MOTION_DDOT = 0

CCSDS_OMM_VERS = 2.0
CREATION_DATE  = 
ORIGINATOR     = 

OBJECT_NAME    = STARLINK-35634
OBJECT_ID      = 2025-240AD
CENTER_NAME    = EARTH
REF_FRAME      = TEME
TIME_SYSTEM    = UTC
MEAN_ELEMENT_THEORY = SGP/SGP4

EPOCH          = 2025-11-18T20:00:01.999008
MEAN_MOTION    = 15.49273568
ECCENTRICITY   = .0000854
INCLINATION    = 53.1603
RA_OF_ASC_NODE = 218.6994
ARG_OF_PERICENTER = 94.1106
MEAN_ANOMALY   = 204.3409

EPHEMERIS_TYPE = 0
CLASSIFICATION_TYPE = U
NORAD_CAT_ID   = 66173
ELEMENT_SET_NO = 999
REV_AT_EPOCH   = 506
BSTAR          = .62972E-3
MEAN_MOTION_DOT = .34686E-3
MEAN_MOTION_DDOT = 0

CCSDS_OMM_VERS = 2.0
CREATION_DATE  = 
ORIGINATOR     = 

OBJECT_NAME    = HTV-X1
OBJECT_ID      = 2025-241A
CENTER_NAME    = EARTH
REF_FRAME      = TEME
TIME_SYSTEM    = UTC
MEAN_ELEMENT_THEORY = SGP/SGP4

EPOCH          = 2025-11-17T21:36:37.629792
MEAN_MOTION    = 15.49772275
ECCENTRICITY   = .000418
INCLINATION    = 51.6331
RA_OF_ASC_NODE = 265.4223
ARG_OF_PERICENTER = 82.0364
MEAN_ANOMALY   = 278.1099

EPHEMERIS_TYPE = 0
CLASSIFICATION_TYPE = U
NORAD_CAT_ID   = 66174
ELEMENT_SET_NO = 999
REV_AT_EPOCH   = 145
BSTAR          = .26898773E-3
MEAN_MOTION_DOT = .14804E-3
MEAN_MOTION_DDOT = 0

