STARLINK-35607          
1 66163U 25240T   25322.83335647  .00029181  00000+0  53136-3 0  9999
2 66163  53.1605 218.7401 0000946  88.7767 190.5052 15.49276937  5065
STARLINK-35614          
1 66164U 25240U   25322.83335647  .00033547  00000+0  60939-3 0  9990
2 66164  53.1604 218.7306 0001363  88.1357 194.9824 15.49273728  5062
STARLINK-35575          
1 66165U 25240V   25322.83335647 -.00081794  00000+0 -14763-2 0  9993
2 66165  53.1605 218.7355 0001350  90.7459 190.4323 15.49340282  5061
STARLINK-35624          
1 66166U 25240W   25322.83335647  .00029704  00000+0  54072-3 0  9993
2 66166  53.1605 218.7239 0000767  95.8838 191.0664 15.49275761  5065
STARLINK-35641          
1 66167U 25240X   25322.83335647  .00065304  00000+0  11745-2 0  9999
2 66167  53.1602 218.7275 0000735 101.9417 183.1003 15.49260052  5066
STARLINK-35578          
1 66168U 25240Y   25322.83335647  .00033756  00000+0  61316-3 0  9996
2 66168  53.1604 218.7116 0000798  87.7972 204.9087 15.49271860  5062
STARLINK-35638          
1 66169U 25240Z   25322.83335647  .00031066  00000+0  56504-3 0  9992
2 66169  53.1604 218.7190 0001273  88.3780 200.4874 15.49276384  5069
STARLINK-35585          
1 66170U 25240AA  25322.83335647  .00028127  00000+0  51251-3 0  9992
2 66170  53.1604 218.7077 0001328  86.7899 207.8250 15.49278154  5065
STARLINK-35606          
1 66171U 25240AB  25322.83335647  .00028152  00000+0  51297-3 0  9991
2 66171  53.1604 218.7034 0000895  96.0221 200.5113 15.49277021  5060
STARLINK-35627          
1 66172U 25240AC  25322.83335647  .00028708  00000+0  52294-3 0  9997
2 66172  53.1604 218.7154 0000724  98.2947 192.4908 15.49276027  5060
STARLINK-35634          
1 66173U 25240AD  25322.83335647  .00034686  00000+0  62972-3 0  9994
2 66173  53.1603 218.6994 0000854  94.1106 204.3409 15.49273568  5063
HTV-X1                  
1 66174U 25241A   25321.90043553  .00014804  00000+0  26899-3 0  9993
2 66174  51.6331 265.4223 0004180  82.0364 278.1099 15.49772275  1450
